CCSDS_OMM_VERS = 2.0
CREATION_DATE  = 
ORIGINATOR     = 

OBJECT_NAME    = ALOS (DAICHI)
OBJECT_ID      = 2006-002A
CENTER_NAME    = EARTH
REF_FRAME      = TEME
TIME_SYSTEM    = UTC
MEAN_ELEMENT_THEORY = SGP/SGP4

EPOCH          = 2025-12-11T03:06:12.862656
MEAN_MOTION    = 14.69479565
ECCENTRICITY   = .0001055
INCLINATION    = 98.1091
RA_OF_ASC_NODE = 296.6279
ARG_OF_PERICENTER = 115.6358
MEAN_ANOMALY   = 244.4957

EPHEMERIS_TYPE = 0
CLASSIFICATION_TYPE = U
NORAD_CAT_ID   = 28931
ELEMENT_SET_NO = 999
REV_AT_EPOCH   = 6047
BSTAR          = .39954E-3
MEAN_MOTION_DOT = .2319E-4
MEAN_MOTION_DDOT = 0

CCSDS_OMM_VERS = 2.0
CREATION_DATE  = 
ORIGINATOR     = 

OBJECT_NAME    = H-2A R/B
OBJECT_ID      = 2006-002B
CENTER_NAME    = EARTH
REF_FRAME      = TEME
TIME_SYSTEM    = UTC
MEAN_ELEMENT_THEORY = SGP/SGP4

EPOCH          = 2025-12-11T03:12:29.849184
MEAN_MOTION    = 15.14515209
ECCENTRICITY   = .0054516
INCLINATION    = 98.2315
RA_OF_ASC_NODE = 119.7507
ARG_OF_PERICENTER = 181.8783
MEAN_ANOMALY   = 178.2251

EPHEMERIS_TYPE = 0
CLASSIFICATION_TYPE = U
NORAD_CAT_ID   = 28932
ELEMENT_SET_NO = 999
REV_AT_EPOCH   = 8102
BSTAR          = .87527E-3
MEAN_MOTION_DOT = .16677E-3
MEAN_MOTION_DDOT = 0

CCSDS_OMM_VERS = 2.0
CREATION_DATE  = 
ORIGINATOR     = 

OBJECT_NAME    = RESURS-DK 1
OBJECT_ID      = 2006-021A
CENTER_NAME    = EARTH
REF_FRAME      = TEME
TIME_SYSTEM    = UTC
MEAN_ELEMENT_THEORY = SGP/SGP4

EPOCH          = 2025-12-10T18:42:49.206816
MEAN_MOTION    = 15.12143770
ECCENTRICITY   = .00074309
INCLINATION    = 69.9334
RA_OF_ASC_NODE = 106.9034
ARG_OF_PERICENTER = 261.2716
MEAN_ANOMALY   = 98.7608

EPHEMERIS_TYPE = 0
CLASSIFICATION_TYPE = U
NORAD_CAT_ID   = 29228
ELEMENT_SET_NO = 999
REV_AT_EPOCH   = 7408
BSTAR          = .25580505E-3
MEAN_MOTION_DOT = .4317E-4
MEAN_MOTION_DDOT = 0

CCSDS_OMM_VERS = 2.0
CREATION_DATE  = 
ORIGINATOR     = 

OBJECT_NAME    = CZ-4B R/B
OBJECT_ID      = 2006-046C
CENTER_NAME    = EARTH
REF_FRAME      = TEME
TIME_SYSTEM    = UTC
MEAN_ELEMENT_THEORY = SGP/SGP4

EPOCH          = 2025-12-11T02:51:07.656768
MEAN_MOTION    = 15.15844860
ECCENTRICITY   = .0033157
INCLINATION    = 97.5736
RA_OF_ASC_NODE = 25.2612
ARG_OF_PERICENTER = 212.2052
MEAN_ANOMALY   = 147.7156

EPHEMERIS_TYPE = 0
CLASSIFICATION_TYPE = U
NORAD_CAT_ID   = 29507
ELEMENT_SET_NO = 999
REV_AT_EPOCH   = 4662
BSTAR          = .41016E-3
MEAN_MOTION_DOT = .7885E-4
MEAN_MOTION_DDOT = 0

CCSDS_OMM_VERS = 2.0
CREATION_DATE  = 
ORIGINATOR     = 

OBJECT_NAME    = CZ-2C R/B
OBJECT_ID      = 2007-010B
CENTER_NAME    = EARTH
REF_FRAME      = TEME
TIME_SYSTEM    = UTC
MEAN_ELEMENT_THEORY = SGP/SGP4

EPOCH          = 2025-12-11T04:02:59.885088
MEAN_MOTION    = 14.20209069
ECCENTRICITY   = .0058889
INCLINATION    = 98.3974
RA_OF_ASC_NODE = 97.8987
ARG_OF_PERICENTER = 190.5627
MEAN_ANOMALY   = 169.4317

EPHEMERIS_TYPE = 0
CLASSIFICATION_TYPE = U
NORAD_CAT_ID   = 31114
ELEMENT_SET_NO = 999
REV_AT_EPOCH   = 96715
BSTAR          = .14875E-3
MEAN_MOTION_DOT = .282E-5
MEAN_MOTION_DDOT = 0

CCSDS_OMM_VERS = 2.0
CREATION_DATE  = 
ORIGINATOR     = 

OBJECT_NAME    = COSMO-SKYMED 1
OBJECT_ID      = 2007-023A
CENTER_NAME    = EARTH
REF_FRAME      = TEME
TIME_SYSTEM    = UTC
MEAN_ELEMENT_THEORY = SGP/SGP4

EPOCH          = 2025-12-11T04:23:01.137120
MEAN_MOTION    = 14.95744113
ECCENTRICITY   = .0001094
INCLINATION    = 97.8835
RA_OF_ASC_NODE = 170.5717
ARG_OF_PERICENTER = 86.3493
MEAN_ANOMALY   = 273.7852

EPHEMERIS_TYPE = 0
CLASSIFICATION_TYPE = U
NORAD_CAT_ID   = 31598
ELEMENT_SET_NO = 999
REV_AT_EPOCH   = 167
BSTAR          = .53108E-3
MEAN_MOTION_DOT = .5861E-4
MEAN_MOTION_DDOT = 0

CCSDS_OMM_VERS = 2.0
CREATION_DATE  = 
ORIGINATOR     = 

OBJECT_NAME    = COSMOS 2428
OBJECT_ID      = 2007-029A
CENTER_NAME    = EARTH
REF_FRAME      = TEME
TIME_SYSTEM    = UTC
MEAN_ELEMENT_THEORY = SGP/SGP4

EPOCH          = 2025-12-11T04:20:22.536096
MEAN_MOTION    = 14.12889157
ECCENTRICITY   = .0003577
INCLINATION    = 70.9368
RA_OF_ASC_NODE = 29.1533
ARG_OF_PERICENTER = 25.8170
MEAN_ANOMALY   = 334.3129

EPHEMERIS_TYPE = 0
CLASSIFICATION_TYPE = U
NORAD_CAT_ID   = 31792
ELEMENT_SET_NO = 999
REV_AT_EPOCH   = 95159
BSTAR          = .79104E-4
MEAN_MOTION_DOT = .99E-6
MEAN_MOTION_DDOT = 0

CCSDS_OMM_VERS = 2.0
CREATION_DATE  = 
ORIGINATOR     = 

OBJECT_NAME    = SL-16 R/B
OBJECT_ID      = 2007-029B
CENTER_NAME    = EARTH
REF_FRAME      = TEME
TIME_SYSTEM    = UTC
MEAN_ELEMENT_THEORY = SGP/SGP4

EPOCH          = 2025-12-11T04:32:00.292128
MEAN_MOTION    = 14.14814725
ECCENTRICITY   = .0002229
INCLINATION    = 70.9757
RA_OF_ASC_NODE = 358.4180
ARG_OF_PERICENTER = 262.8609
MEAN_ANOMALY   = 166.2137

EPHEMERIS_TYPE = 0
CLASSIFICATION_TYPE = U
NORAD_CAT_ID   = 31793
ELEMENT_SET_NO = 999
REV_AT_EPOCH   = 95285
BSTAR          = -.34796E-4
MEAN_MOTION_DOT = -.115E-5
MEAN_MOTION_DDOT = 0

CCSDS_OMM_VERS = 2.0
CREATION_DATE  = 
ORIGINATOR     = 

OBJECT_NAME    = KORONAS-FOTON
OBJECT_ID      = 2009-003A
CENTER_NAME    = EARTH
REF_FRAME      = TEME
TIME_SYSTEM    = UTC
MEAN_ELEMENT_THEORY = SGP/SGP4

EPOCH          = 2025-12-11T03:08:58.183008
MEAN_MOTION    = 15.41128760
ECCENTRICITY   = .0013156
INCLINATION    = 82.4316
RA_OF_ASC_NODE = 7.7724
ARG_OF_PERICENTER = 113.4603
MEAN_ANOMALY   = 246.8028

EPHEMERIS_TYPE = 0
CLASSIFICATION_TYPE = U
NORAD_CAT_ID   = 33504
ELEMENT_SET_NO = 999
REV_AT_EPOCH   = 93209
BSTAR          = .43852E-3
MEAN_MOTION_DOT = .18262E-3
MEAN_MOTION_DDOT = 0

CCSDS_OMM_VERS = 2.0
CREATION_DATE  = 
ORIGINATOR     = 

OBJECT_NAME    = CZ-2C R/B
OBJECT_ID      = 2011-030B
CENTER_NAME    = EARTH
REF_FRAME      = TEME
TIME_SYSTEM    = UTC
MEAN_ELEMENT_THEORY = SGP/SGP4

EPOCH          = 2025-12-11T03:57:58.336992
MEAN_MOTION    = 14.80893821
ECCENTRICITY   = .005139
INCLINATION    = 97.8411
RA_OF_ASC_NODE = 299.3066
ARG_OF_PERICENTER = 278.8985
MEAN_ANOMALY   = 91.3289

EPHEMERIS_TYPE = 0
CLASSIFICATION_TYPE = U
NORAD_CAT_ID   = 37731
ELEMENT_SET_NO = 999
REV_AT_EPOCH   = 77699
BSTAR          = .34126E-3
MEAN_MOTION_DOT = .2642E-4
MEAN_MOTION_DDOT = 0

CCSDS_OMM_VERS = 2.0
CREATION_DATE  = 
ORIGINATOR     = 

OBJECT_NAME    = H-2A R/B
OBJECT_ID      = 2012-025E
CENTER_NAME    = EARTH
REF_FRAME      = TEME
TIME_SYSTEM    = UTC
MEAN_ELEMENT_THEORY = SGP/SGP4

EPOCH          = 2025-12-11T04:00:03.208320
MEAN_MOTION    = 14.94434599
ECCENTRICITY   = .0043612
INCLINATION    = 98.4598
RA_OF_ASC_NODE = 300.2754
ARG_OF_PERICENTER = 241.3758
MEAN_ANOMALY   = 118.3070

EPHEMERIS_TYPE = 0
CLASSIFICATION_TYPE = U
NORAD_CAT_ID   = 38341
ELEMENT_SET_NO = 999
REV_AT_EPOCH   = 73499
BSTAR          = .53751E-3
MEAN_MOTION_DOT = .5836E-4
MEAN_MOTION_DDOT = 0

CCSDS_OMM_VERS = 2.0
CREATION_DATE  = 
ORIGINATOR     = 

OBJECT_NAME    = SHIJIAN-16 (SJ-16)
OBJECT_ID      = 2013-057A
CENTER_NAME    = EARTH
REF_FRAME      = TEME
TIME_SYSTEM    = UTC
MEAN_ELEMENT_THEORY = SGP/SGP4

EPOCH          = 2025-12-11T04:39:33.835104
MEAN_MOTION    = 14.91978818
ECCENTRICITY   = .001759
INCLINATION    = 74.9731
RA_OF_ASC_NODE = 352.5797
ARG_OF_PERICENTER = 323.3578
MEAN_ANOMALY   = 36.6406

EPHEMERIS_TYPE = 0
CLASSIFICATION_TYPE = U
NORAD_CAT_ID   = 39358
ELEMENT_SET_NO = 999
REV_AT_EPOCH   = 65830
BSTAR          = .20832E-3
MEAN_MOTION_DOT = .2088E-4
MEAN_MOTION_DDOT = 0

