ALOS (DAICHI)           
1 28931U 06002A   25345.12931554  .00002319  00000+0  39954-3 0  9997
2 28931  98.1091 296.6279 0001055 115.6358 244.4957 14.69479565 60472
H-2A R/B                
1 28932U 06002B   25345.13367881  .00016677  00000+0  87527-3 0  9996
2 28932  98.2315 119.7507 0054516 181.8783 178.2251 15.14515209 81021
RESURS-DK 1             
1 29228U 06021A   25344.77973619  .00004317  00000+0  25581-3 0  9997
2 29228  69.9334 106.9034 0007430 261.2716  98.7608 15.12143770 74089
CZ-4B R/B               
1 29507U 06046C   25345.11883862  .00007885  00000+0  41016-3 0  9997
2 29507  97.5736  25.2612 0033157 212.2052 147.7156 15.15844860 46624
CZ-2C R/B               
1 31114U 07010B   25345.16874867  .00000282  00000+0  14875-3 0  9993
2 31114  98.3974  97.8987 0058889 190.5627 169.4317 14.20209069967150
COSMO-SKYMED 1          
1 31598U 07023A   25345.18265205  .00005861  00000+0  53108-3 0  9995
2 31598  97.8835 170.5717 0001094  86.3493 273.7852 14.95744113  1670
COSMOS 2428             
1 31792U 07029A   25345.18081639  .00000099  00000+0  79104-4 0  9997
2 31792  70.9368  29.1533 0003577  25.8170 334.3129 14.12889157951595
SL-16 R/B               
1 31793U 07029B   25345.18889227 -.00000115  00000+0 -34796-4 0  9996
2 31793  70.9757 358.4180 0002229 262.8609 166.2137 14.14814725952859
KORONAS-FOTON           
1 33504U 09003A   25345.13122897  .00018262  00000+0  43852-3 0  9992
2 33504  82.4316   7.7724 0013156 113.4603 246.8028 15.41128760932090
CZ-2C R/B               
1 37731U 11030B   25345.16525853  .00002642  00000+0  34126-3 0  9992
2 37731  97.8411 299.3066 0051390 278.8985  91.3289 14.80893821776997
H-2A R/B                
1 38341U 12025E   25345.16670380  .00005836  00000+0  53751-3 0  9994
2 38341  98.4598 300.2754 0043612 241.3758 118.3070 14.94434599734995
SHIJIAN-16 (SJ-16)      
1 39358U 13057A   25345.19414161  .00002088  00000+0  20832-3 0  9995
2 39358  74.9731 352.5797 0017590 323.3578  36.6406 14.91978818658305
